<?xml version="1.0" encoding="UTF-8"?>
<kml xmlns="http://www.opengis.net/kml/2.2" xmlns:gx="http://www.google.com/kml/ext/2.2" xmlns:kml="http://www.opengis.net/kml/2.2" xmlns:atom="http://www.w3.org/2005/Atom">
<Document>
	<name>QAU Polygon.kml</name>
	<StyleMap id="m_ylw-pushpin">
		<Pair>
			<key>normal</key>
			<styleUrl>#s_ylw-pushpin</styleUrl>
		</Pair>
		<Pair>
			<key>highlight</key>
			<styleUrl>#s_ylw-pushpin_hl</styleUrl>
		</Pair>
	</StyleMap>
	<Style id="s_ylw-pushpin">
		<IconStyle>
			<scale>1.1</scale>
			<Icon>
				<href>http://maps.google.com/mapfiles/kml/pushpin/ylw-pushpin.png</href>
			</Icon>
			<hotSpot x="20" y="2" xunits="pixels" yunits="pixels"/>
		</IconStyle>
	</Style>
	<Style id="s_ylw-pushpin_hl">
		<IconStyle>
			<scale>1.3</scale>
			<Icon>
				<href>http://maps.google.com/mapfiles/kml/pushpin/ylw-pushpin.png</href>
			</Icon>
			<hotSpot x="20" y="2" xunits="pixels" yunits="pixels"/>
		</IconStyle>
	</Style>
	<Placemark>
		<name>QAU Polygon</name>
		<styleUrl>#m_ylw-pushpin</styleUrl>
		<Polygon>
			<tessellate>1</tessellate>
			<outerBoundaryIs>
				<LinearRing>
					<coordinates>
						73.13237870705876,33.74908602590687,0 73.13238694947051,33.74902587277215,0 73.1322719117976,33.74901056509948,0 73.13223339531017,33.74895225627404,0 73.13222629332982,33.74885186908145,0 73.13218750257376,33.74877614113578,0 73.13217653493184,33.74867897644454,0 73.13218375832322,33.74860251254846,0 73.13214681595419,33.74850829321859,0 73.13215154004918,33.74845160607909,0 73.13211201164712,33.74837720409335,0 73.13209524853818,33.74830249620661,0 73.13208048513216,33.74820891705583,0 73.13207509785306,33.74812846434683,0 73.13208725532517,33.74800379885185,0 73.13210538980053,33.74792359740345,0 73.1321217452444,33.74782697655129,0 73.13211493006433,33.74774916319865,0 73.13210684541404,33.74763710588873,0 73.13211299708681,33.74756392870867,0 73.13212100274785,33.74747250518544,0 73.13210676505634,33.74738160391938,0 73.13211300834465,33.74727379578644,0 73.13208890223854,33.74717794164106,0 73.13207995590608,33.74711092691575,0 73.1320618857392,33.74702154760354,0 73.13206943384466,33.74691327374473,0 73.1320796569491,33.74678678920905,0 73.13209027990517,33.7466956306766,0 73.13210232066749,33.74658681575997,0 73.13211030761789,33.74651450527552,0 73.13211830292065,33.74644235641791,0 73.13212511867017,33.74638814168252,0 73.13213418385138,33.7463160307388,0 73.13214104706297,33.74622726219325,0 73.13214887407358,33.74613845834885,0 73.13217948838449,33.74606687970888,0 73.13218504305922,33.74599627302536,0 73.13218984197519,33.74592596412612,0 73.13219880118042,33.74583766933324,0 73.13220885179193,33.74576667387436,0 73.13225408016147,33.74567635201321,0 73.13225700086012,33.74558985945916,0 73.13228706133614,33.7455197917544,0 73.13232052210077,33.74544947831397,0 73.13236040525574,33.74534446365126,0 73.13240831900147,33.74529254098618,0 73.13245686508617,33.74520652539768,0 73.13248601562697,33.74513760763354,0 73.13253518009108,33.74506892933109,0 73.13255586033411,33.74500087166954,0 73.13260284619687,33.74493253684735,0 73.13265355976984,33.74486417439618,0 73.13268295052524,33.74479602605718,0 73.13275453284717,33.7447280616128,0 73.1328030555535,33.74466032080263,0 73.13287122775918,33.74459273373459,0 73.13293878412411,33.74452529118526,0 73.13298519634463,33.74445794620943,0 73.13299163392384,33.74437394445831,0 73.13303927891627,33.74425649414541,0 73.13312449481153,33.74420624908248,0 73.13318958210665,33.7441561005318,0 73.13327594324518,33.7441060925188,0 73.13337980739294,33.7440726216218,0 73.13348183171377,33.74405574997083,0 73.13358260469658,33.74405551935125,0 73.13368330183637,33.74405526802403,0 73.13380412752566,33.74405495378702,0 73.13392204429293,33.74405426797381,0 73.13403694032181,33.74405317091026,0 73.13416964396583,33.74405164130933,0 73.13433577567011,33.74405169657771,0 73.13442532730264,33.74405260709025,0 73.13451459902456,33.7440535150828,0 73.13466270014939,33.7440540263902,0 73.13476592504766,33.74405403632552,0 73.13488979260879,33.74405404838146,0 73.13497390521394,33.74405429503647,0 73.13510090706362,33.74405482076214,0 73.13520282539564,33.7440546359828,0 73.13530248692167,33.74407089609653,0 73.13542342361086,33.74408726023707,0 73.13552591850699,33.74410398860049,0 73.13566938074864,33.74413752349271,0 73.13579371023546,33.74415444641949,0 73.13589729788038,33.74417135691942,0 73.13601960981447,33.74420481902446,0 73.13612038427854,33.74422127674558,0 73.13622179751762,33.74422093323357,0 73.13632372631986,33.74425448232694,0 73.13644719165045,33.74427125479782,0 73.1365706469293,33.74428802356056,0 73.13661190539669,33.74428798370926,0 73.13669368327392,33.74432166567745,0 73.1367759856283,33.74433849629438,0 73.13685856394004,33.74435537356601,0 73.13696148120704,33.74438915998198,0 73.13706573244045,33.74438920124161,0 73.13719069829085,33.74440620383876,0 73.13727335246382,33.74442310132484,0 73.13733541833381,33.74442304740612,0 73.13741775971019,33.74443985652615,0 73.13750022005638,33.74445675000543,0 73.1375831445888,33.74445668894864,0 73.13766552859511,33.74447355482546,0 73.13774834673779,33.74447344114706,0 73.13783146137229,33.74447338804488,0 73.13793547575112,33.74447330895569,0 73.13803965413101,33.74447325753524,0 73.13814379275006,33.74447314870623,0 73.13826896925444,33.74449008955651,0 73.1384152568163,33.74448997112598,0 73.13847799611158,33.74448993230783,0 73.13860372308697,33.7445069499202,0 73.13868759429309,33.74450701093553,0 73.13877137140121,33.74450708954653,0 73.13891813281556,33.74452412634243,0 73.13898116456399,33.74454119576595,0 73.13912854589228,33.74455821565505,0 73.13921226655009,33.74457537290387,0 73.13933767479057,33.74457541552827,0 73.13944186007862,33.74457546218088,0 73.13956741820371,33.74459256065228,0 73.13967204013369,33.74460965553464,0 73.13975577011608,33.74462674686556,0 73.13983960540158,33.74464380357897,0 73.13992348984675,33.74464384682989,0 73.14007104781078,33.74466096240859,0 73.14017649027211,33.74467809065631,0 73.14026049964373,33.74467809545128,0 73.14038675242705,33.74469520079825,0 73.140491723469,33.74469523469366,0 73.14059699128057,33.74469523943356,0 73.14070273468951,33.74471239511722,0 73.14080807237228,33.74471241050175,0 73.14091448412583,33.74474674872098,0 73.14101994556648,33.74474676946792,0 73.14112598231029,33.7447639667538,0 73.14125308590133,33.74478117693643,0 73.14133750754019,33.74478119409022,0 73.14142262199502,33.74479842933041,0 73.1415495652201,33.74481563886782,0 73.14163387355462,33.74483282423766,0 73.14173969500088,33.74485002511986,0 73.14184576244666,33.74486726157692,0 73.1419527145779,33.74490175995042,0 73.14205806303708,33.74490176085647,0 73.14216544106353,33.74493631337328,0 73.14225139292387,33.74495365846718,0 73.14233712394733,33.74497099836535,0 73.1424450189711,33.74500566508488,0 73.14257429640347,33.7450403894109,0 73.14266122383734,33.74507513243593,0 73.1427482573646,33.74510991776701,0 73.14285671222541,33.74514475267662,0 73.14294234449889,33.74516214064324,0 73.14300686431039,33.74517953900722,0 73.14311363803894,33.74519694071823,0 73.14320172989966,33.7452492216221,0 73.14328893326707,33.74528416460584,0 73.14337757927106,33.74531933093898,0 73.1434663636784,33.74535454971414,0 73.14355529245015,33.74538982605088,0 73.14364436655622,33.74542515967991,0 73.14373358538464,33.74546055074457,0 73.14382295056048,33.74549600025585,0 73.14391398446794,33.7455491740996,0 73.14400366972239,33.74558476395533,0 73.14409350084036,33.74562041175151,0 73.14418245710945,33.74565591291729,0 73.14430214565584,33.74571071252012,0 73.14437673842809,33.74574770125216,0 73.14447735820856,33.74580322828673,0 73.14455072409643,33.74585776408602,0 73.14464554219656,33.74591233961684,0 73.14474087829115,33.74596717390489,0 73.14483307949004,33.74602138085515,0 73.14490186583757,33.74605757697687,0 73.14499262708189,33.74609386872311,0 73.14506364266416,33.74616602452132,0 73.14515417849363,33.74623773177618,0 73.14524538793121,33.74632739307791,0 73.14531410821985,33.74639921111334,0 73.14536121575507,33.74647112064682,0 73.14540993679242,33.74654354820947,0 73.14545853291567,33.74659827632356,0 73.14550809927476,33.74667112071211,0 73.1455568186273,33.74674381104052,0 73.14560591954294,33.74683452180627,0 73.14561161909577,33.74692542538289,0 73.14561793990829,33.74701670736182,0 73.14562897940243,33.74712762400542,0 73.14561546421695,33.74720223744396,0 73.14562572037462,33.74727768343609,0 73.14563479761692,33.74735289359846,0 73.14564614068682,33.7474651102277,0 73.14565641513263,33.74755928610715,0 73.14566681643096,33.74765367564513,0 73.14567811130571,33.74776685553112,0 73.14568477882092,33.74784210024773,0 73.1456928466075,33.7479542949488,0 73.14570116407479,33.74804877660373,0 73.14570938216099,33.7481434099445,0 73.14567104280873,33.74821904941787,0 73.14563472162139,33.748295892415,0 73.14559556142899,33.74837143569555,0 73.14555564934651,33.74844673832122,0 73.14551660034833,33.74852266812815,0 73.14547957691985,33.74859993148942,0 73.14544276400098,33.74867751813833,0 73.14538574562491,33.74877499066616,0 73.14532748016128,33.74885374420613,0 73.14529123641631,33.7489325429119,0 73.14522887495036,33.7489908364987,0 73.14516746056617,33.74906828359381,0 73.14508359573966,33.74914601651122,0 73.14504515005075,33.74922424704229,0 73.14498423581048,33.74930276940287,0 73.14490458243176,33.74940292693999,0 73.14482286806901,33.74946508415223,0 73.14478389898871,33.74952552976328,0 73.14467744152266,33.74958662487325,0 73.14459143117959,33.74962761718801,0 73.14450492530669,33.74966837027666,0 73.14441789692519,33.74970883335817,0 73.1443313987612,33.74974994022964,0 73.144267700314,33.7497912703593,0 73.14418118770958,33.74983273510649,0 73.14409291342933,33.74987270180466,0 73.14398466263189,33.74991562200746,0 73.14389932044764,33.74994030652287,0 73.14381430469875,33.74998422984078,0 73.14372707175104,33.75002616438653,0 73.14361616518929,33.75006744192612,0 73.14350572595127,33.75012823767181,0 73.14341447458547,33.75014751728145,0 73.14332447579289,33.75018704479578,0 73.14323176580713,33.75020463379538,0 73.14313858308502,33.75022157517331,0 73.14304884835124,33.75024286126076,0 73.1429613172475,33.75028589284462,0 73.14282384428574,33.75030508305845,0 73.1427323702878,33.75032439196233,0 73.14266517465531,33.75036433823539,0 73.14252537182756,33.750361491641,0 73.1424324456584,33.75037863529811,0 73.14233957024118,33.75039576924939,0 73.14222361059953,33.75041259388907,0 73.1420855448678,33.75041196837977,0 73.14197051667689,33.75041145638527,0 73.14183256459405,33.75042966250024,0 73.14171769972134,33.75046681440401,0 73.14157895904427,33.75048334366556,0 73.14144157435912,33.75050250895588,0 73.14128093478477,33.7505022850455,0 73.14114384097685,33.75052221280449,0 73.14102670072641,33.75051610783191,0 73.14088970660052,33.75053612231218,0 73.14077495591542,33.75053569996661,0 73.14063726424173,33.75053516471281,0 73.14047704189861,33.75053579644869,0 73.14033940423001,33.75053533692772,0 73.14017894117548,33.75053516134257,0 73.14001823145043,33.75053389125587,0 73.13981050007261,33.75052603571596,0 73.13971834318654,33.75052249120426,0 73.13960368701215,33.75052043895234,0 73.13951200721073,33.75051875385743,0 73.13942010314938,33.75051490200331,0 73.13932802415742,33.75050843479328,0 73.13923614681141,33.75050198150553,0 73.13914479195118,33.75049946133726,0 73.13898560770068,33.75050426701524,0 73.13884884329536,33.75048610633322,0 73.13868924089658,33.75048369535293,0 73.13855261204972,33.75045990615944,0 73.13839347235059,33.75043624333362,0 73.13830255637592,33.75041643683026,0 73.13809858058143,33.75039059895281,0 73.13800805451277,33.75036915834015,0 73.13789486799331,33.75036668842584,0 73.1377817840507,33.75034568781983,0 73.13766857266189,33.75032598856756,0 73.13753292630892,33.75032381497671,0 73.13742032432165,33.75030190609384,0 73.13730823223619,33.75027846290228,0 73.13719611595386,33.75027434989904,0 73.13706170661825,33.75025128674094,0 73.13697203304433,33.75023041305585,0 73.13685937399967,33.75022947149213,0 73.1367704213271,33.75018850219335,0 73.13665792293934,33.75018749770987,0 73.13656874234151,33.7501662003882,0 73.13645688380922,33.75014549641497,0 73.13634530604915,33.75012435938568,0 73.13625642155246,33.75010311532144,0 73.13614586707047,33.75008027179942,0 73.13605749537767,33.75005847104257,0 73.13596915476869,33.75003686183577,0 73.13588093958069,33.75001524993517,0 73.13577038388395,33.74999365374624,0 73.13568105953149,33.74999278359422,0 73.13557121249701,33.74995205862762,0 73.13545949949336,33.74993303540565,0 73.13537146100488,33.74991205873201,0 73.13521650318977,33.74987251648938,0 73.13510554855279,33.749834411453,0 73.13499357423972,33.74981612795389,0 73.13488386884661,33.74979474698241,0 73.13475489865216,33.74975124913269,0 73.13464925704237,33.74972524740689,0 73.13453804246964,33.74970657020913,0 73.1344276974303,33.74968688528244,0 73.13430695536377,33.74963541760427,0 73.13420740224178,33.74960425738276,0 73.13412470318109,33.74957957132006,0 73.13400702405707,33.74952738158985,0 73.13390885943976,33.74949682659444,0 73.1338027059417,33.74947488964119,0 73.13369796574624,33.74943384653469,0 73.13356669729006,33.74941530324337,0 73.13347885651645,33.74939728160083,0 73.13339220888736,33.74936026141616,0 73.13327213261012,33.74933328416286,0 73.13317486782883,33.7493231723812,0 73.13305317978157,33.74931469775116,0 73.13290365048088,33.74931040805839,0 73.13282895940701,33.74929887725919,0 73.13265934725437,33.74925550641494,0 73.13261399405496,33.74923800347727,0 73.13250586069955,33.74918122281554,0 73.13237130724094,33.74914571672105,0 73.1322611671289,33.74909051073383,0 73.13237870705876,33.74908602590687,0 
					</coordinates>
				</LinearRing>
			</outerBoundaryIs>
		</Polygon>
		<atom:link rel="app" href="https://www.google.com/earth/about/versions/#earth-pro" title="Google Earth Pro 7.3.7.1155"></atom:link>
	</Placemark>
</Document>
</kml>
