<?xml version="1.0" encoding="UTF-8"?>
<kml xmlns="http://www.opengis.net/kml/2.2">
  <Document>
    <name>VNS Mission Area</name>
    <LookAt>
      <longitude>73.14150000000001</longitude>
      <latitude>33.751000000000005</latitude>
      <altitude>0</altitude>
      <heading>0</heading>
      <tilt>0</tilt>
      <range>2504</range>
    </LookAt>
    <Placemark>
      <name>Start Point</name>
      <Style><IconStyle><color>ff00ff00</color>
      </IconStyle></Style>
      <Point>
        <coordinates>73.137,33.747,0</coordinates>
      </Point>
    </Placemark>
    <Placemark>
      <name>End Point</name>
      <Style><IconStyle><color>ff0000ff</color>
      </IconStyle></Style>
      <Point>
        <coordinates>73.146,33.755,0</coordinates>
      </Point>
    </Placemark>
  </Document>
</kml>