<?xml version="1.0" encoding="UTF-8"?>
<kml xmlns="http://www.opengis.net/kml/2.2">
  <Document>
    <name>VNS Mission Area</name>
    <LookAt>
      <longitude>73.14150000</longitude>
      <latitude>33.75100000</latitude>
      <altitude>0</altitude>
      <heading>0</heading>
      <tilt>0</tilt>
      <range>2504</range>
    </LookAt>
    <Placemark>
      <name>Mission Center</name>
      <Point>
        <coordinates>73.14150000,33.75100000,0</coordinates>
      </Point>
    </Placemark>
    <Placemark>
      <name>Start Point</name>
      <Point>
        <coordinates>73.13700000,33.74700000,0</coordinates>
      </Point>
    </Placemark>
    <Placemark>
      <name>End Point</name>
      <Point>
        <coordinates>73.14600000,33.75500000,0</coordinates>
      </Point>
    </Placemark>
  </Document>
</kml>
