<?xml version="1.0" encoding="UTF-8"?>
<kml xmlns="http://www.opengis.net/kml/2.2">
  <Placemark>
    <name>QAU Campus Boundary</name>
    <Polygon>
      <outerBoundaryIs>
        <LinearRing>
          <coordinates>
            73.1255,33.7410,0
            73.1260,33.7440,0
            73.1258,33.7468,0
            73.1265,33.7495,0
            73.1278,33.7520,0
            73.1300,33.7538,0
            73.1330,33.7548,0
            73.1365,33.7552,0
            73.1400,33.7550,0
            73.1435,33.7542,0
            73.1462,33.7528,0
            73.1478,33.7510,0
            73.1485,33.7488,0
            73.1482,33.7462,0
            73.1475,33.7440,0
            73.1460,33.7420,0
            73.1440,33.7405,0
            73.1410,33.7396,0
            73.1375,33.7393,0
            73.1340,33.7395,0
            73.1305,33.7400,0
            73.1278,33.7405,0
            73.1255,33.7410,0
          </coordinates>
        </LinearRing>
      </outerBoundaryIs>
    </Polygon>
  </Placemark>
</kml>
